YAOGAN-27               
1 40878U 15040A   25124.18530402  .00000013  00000+0  14504-3 0  9994
2 40878 100.0870 123.9857 0009039  79.7657 280.4475 13.16047586465378
GAOFEN-9 01             
1 40894U 15047A   25124.20060979  .00001966  00000+0  25383-3 0  9994
2 40894  97.6803 172.4278 0028894  43.0374 317.3092 14.81774482519605
YAOGAN-28               
1 41026U 15064A   25124.20419410  .00012171  00000+0  51206-3 0  9992
2 41026  97.2527 268.9380 0014703 179.1537 180.9727 15.23429039528367
YAOGAN-29               
1 41038U 15069A   25124.18786046  .00000819  00000+0  10846-3 0  9990
2 41038  98.0372 146.3955 0000042   3.9593 356.1620 14.82594751510011
KENT RIDGE 1            
1 41167U 15077B   25124.13431251  .00005801  00000+0  22969-3 0  9997
2 41167  14.9809  60.0537 0009154 242.6608 117.2782 15.19716936518842
TELEOS-1                
1 41169U 15077D   25123.91990196  .00209100  00000+0  11799-2 0  9998
2 41169  14.9757 219.9491 0001359 187.6069 172.4240 15.77130953520598
GAOFEN-4                
1 41194U 15083A   25123.90201348 -.00000346  00000+0  00000+0 0  9998
2 41194   0.0677  61.6126 0000744 295.9748 294.9222  1.00271341 34424
JASON-3                 
1 41240U 16002A   25124.20263021 -.00000014  00000+0  20240-3 0  9996
2 41240  66.0414 264.8101 0007755 271.1537  88.8589 12.80931387434757
SENTINEL-3A             
1 41335U 16011A   25124.14893341  .00000233  00000+0  11430-3 0  9991
2 41335  98.6271 192.3641 0000965 101.9946 258.1343 14.26735148479734
ZIYUAN 3-2 (ZY 3-2)     
1 41556U 16033A   25124.20552234  .00009188  00000+0  41296-3 0  9991
2 41556  97.4195 201.7731 0006475 284.9387  75.1132 15.21337803495800
CARTOSAT-2C             
1 41599U 16040A   25124.17723477  .00007801  00000+0  37120-3 0  9992
2 41599  97.4248 184.9596 0013562 119.7426 240.5160 15.19357800491611
SKYSAT-C1               
1 41601U 16040C   25124.08391782  .00007026  00000+0  24997-3 0  9993
2 41601  97.0092 173.8519 0002176 150.8231 209.3132 15.29257058495227
LAPAN-A3                
1 41603U 16040E   25124.19619774  .00005616  00000+0  19791-3 0  9990
2 41603  97.1384 130.2377 0012371  47.1884 313.0395 15.29594349492221
BIROS                   
1 41604U 16040F   25124.06422397  .00037853  00000+0  46994-3 0  9993
2 41604  97.0901 152.9623 0003314 324.7276  35.3761 15.59916838493807
