[
  {
    "OBJECT_NAME": "YAOGAN-27",
    "OBJECT_ID": "2015-040A",
    "EPOCH": "2025-05-04T04:26:50.267328",
    "MEAN_MOTION": 13.16047586,
    "ECCENTRICITY": 0.0009039,
    "INCLINATION": 100.087,
    "RA_OF_ASC_NODE": 123.9857,
    "ARG_OF_PERICENTER": 79.7657,
    "MEAN_ANOMALY": 280.4475,
    "EPHEMERIS_TYPE": 0,
    "CLASSIFICATION_TYPE": "U",
    "NORAD_CAT_ID": 40878,
    "ELEMENT_SET_NO": 999,
    "REV_AT_EPOCH": 46537,
    "BSTAR": 0.00014504,
    "MEAN_MOTION_DOT": 1.3e-07,
    "MEAN_MOTION_DDOT": 0
  },
  {
    "OBJECT_NAME": "GAOFEN-9 01",
    "OBJECT_ID": "2015-047A",
    "EPOCH": "2025-05-04T04:48:52.685856",
    "MEAN_MOTION": 14.81774482,
    "ECCENTRICITY": 0.0028894,
    "INCLINATION": 97.6803,
    "RA_OF_ASC_NODE": 172.4278,
    "ARG_OF_PERICENTER": 43.0374,
    "MEAN_ANOMALY": 317.3092,
    "EPHEMERIS_TYPE": 0,
    "CLASSIFICATION_TYPE": "U",
    "NORAD_CAT_ID": 40894,
    "ELEMENT_SET_NO": 999,
    "REV_AT_EPOCH": 51960,
    "BSTAR": 0.00025383,
    "MEAN_MOTION_DOT": 1.966e-05,
    "MEAN_MOTION_DDOT": 0
  },
  {
    "OBJECT_NAME": "YAOGAN-28",
    "OBJECT_ID": "2015-064A",
    "EPOCH": "2025-05-04T04:54:02.370240",
    "MEAN_MOTION": 15.23429039,
    "ECCENTRICITY": 0.0014703,
    "INCLINATION": 97.2527,
    "RA_OF_ASC_NODE": 268.938,
    "ARG_OF_PERICENTER": 179.1537,
    "MEAN_ANOMALY": 180.9727,
    "EPHEMERIS_TYPE": 0,
    "CLASSIFICATION_TYPE": "U",
    "NORAD_CAT_ID": 41026,
    "ELEMENT_SET_NO": 999,
    "REV_AT_EPOCH": 52836,
    "BSTAR": 0.00051206,
    "MEAN_MOTION_DOT": 0.00012171,
    "MEAN_MOTION_DDOT": 0
  },
  {
    "OBJECT_NAME": "YAOGAN-29",
    "OBJECT_ID": "2015-069A",
    "EPOCH": "2025-05-04T04:30:31.143744",
    "MEAN_MOTION": 14.82594751,
    "ECCENTRICITY": 4.2e-06,
    "INCLINATION": 98.0372,
    "RA_OF_ASC_NODE": 146.3955,
    "ARG_OF_PERICENTER": 3.9593,
    "MEAN_ANOMALY": 356.162,
    "EPHEMERIS_TYPE": 0,
    "CLASSIFICATION_TYPE": "U",
    "NORAD_CAT_ID": 41038,
    "ELEMENT_SET_NO": 999,
    "REV_AT_EPOCH": 51001,
    "BSTAR": 0.00010846,
    "MEAN_MOTION_DOT": 8.19e-06,
    "MEAN_MOTION_DDOT": 0
  },
  {
    "OBJECT_NAME": "KENT RIDGE 1",
    "OBJECT_ID": "2015-077B",
    "EPOCH": "2025-05-04T03:13:24.600864",
    "MEAN_MOTION": 15.19716936,
    "ECCENTRICITY": 0.0009154,
    "INCLINATION": 14.9809,
    "RA_OF_ASC_NODE": 60.0537,
    "ARG_OF_PERICENTER": 242.6608,
    "MEAN_ANOMALY": 117.2782,
    "EPHEMERIS_TYPE": 0,
    "CLASSIFICATION_TYPE": "U",
    "NORAD_CAT_ID": 41167,
    "ELEMENT_SET_NO": 999,
    "REV_AT_EPOCH": 51884,
    "BSTAR": 0.00022969,
    "MEAN_MOTION_DOT": 5.801e-05,
    "MEAN_MOTION_DDOT": 0
  },
  {
    "OBJECT_NAME": "TELEOS-1",
    "OBJECT_ID": "2015-077D",
    "EPOCH": "2025-05-03T22:04:39.529344",
    "MEAN_MOTION": 15.77130953,
    "ECCENTRICITY": 0.0001359,
    "INCLINATION": 14.9757,
    "RA_OF_ASC_NODE": 219.9491,
    "ARG_OF_PERICENTER": 187.6069,
    "MEAN_ANOMALY": 172.424,
    "EPHEMERIS_TYPE": 0,
    "CLASSIFICATION_TYPE": "U",
    "NORAD_CAT_ID": 41169,
    "ELEMENT_SET_NO": 999,
    "REV_AT_EPOCH": 52059,
    "BSTAR": 0.0011799,
    "MEAN_MOTION_DOT": 0.002091,
    "MEAN_MOTION_DDOT": 0
  },
  {
    "OBJECT_NAME": "GAOFEN-4",
    "OBJECT_ID": "2015-083A",
    "EPOCH": "2025-05-03T21:38:53.964672",
    "MEAN_MOTION": 1.00271341,
    "ECCENTRICITY": 7.44e-05,
    "INCLINATION": 0.0677,
    "RA_OF_ASC_NODE": 61.6126,
    "ARG_OF_PERICENTER": 295.9748,
    "MEAN_ANOMALY": 294.9222,
    "EPHEMERIS_TYPE": 0,
    "CLASSIFICATION_TYPE": "U",
    "NORAD_CAT_ID": 41194,
    "ELEMENT_SET_NO": 999,
    "REV_AT_EPOCH": 3442,
    "BSTAR": 0,
    "MEAN_MOTION_DOT": -3.46e-06,
    "MEAN_MOTION_DDOT": 0
  },
  {
    "OBJECT_NAME": "JASON-3",
    "OBJECT_ID": "2016-002A",
    "EPOCH": "2025-05-04T04:51:47.250144",
    "MEAN_MOTION": 12.80931387,
    "ECCENTRICITY": 0.0007755,
    "INCLINATION": 66.0414,
    "RA_OF_ASC_NODE": 264.8101,
    "ARG_OF_PERICENTER": 271.1537,
    "MEAN_ANOMALY": 88.8589,
    "EPHEMERIS_TYPE": 0,
    "CLASSIFICATION_TYPE": "U",
    "NORAD_CAT_ID": 41240,
    "ELEMENT_SET_NO": 999,
    "REV_AT_EPOCH": 43475,
    "BSTAR": 0.0002024,
    "MEAN_MOTION_DOT": -1.4e-07,
    "MEAN_MOTION_DDOT": 0
  },
  {
    "OBJECT_NAME": "SENTINEL-3A",
    "OBJECT_ID": "2016-011A",
    "EPOCH": "2025-05-04T03:34:27.846624",
    "MEAN_MOTION": 14.26735148,
    "ECCENTRICITY": 9.65e-05,
    "INCLINATION": 98.6271,
    "RA_OF_ASC_NODE": 192.3641,
    "ARG_OF_PERICENTER": 101.9946,
    "MEAN_ANOMALY": 258.1343,
    "EPHEMERIS_TYPE": 0,
    "CLASSIFICATION_TYPE": "U",
    "NORAD_CAT_ID": 41335,
    "ELEMENT_SET_NO": 999,
    "REV_AT_EPOCH": 47973,
    "BSTAR": 0.0001143,
    "MEAN_MOTION_DOT": 2.33e-06,
    "MEAN_MOTION_DDOT": 0
  },
  {
    "OBJECT_NAME": "ZIYUAN 3-2 (ZY 3-2)",
    "OBJECT_ID": "2016-033A",
    "EPOCH": "2025-05-04T04:55:57.130176",
    "MEAN_MOTION": 15.21337803,
    "ECCENTRICITY": 0.0006475,
    "INCLINATION": 97.4195,
    "RA_OF_ASC_NODE": 201.7731,
    "ARG_OF_PERICENTER": 284.9387,
    "MEAN_ANOMALY": 75.1132,
    "EPHEMERIS_TYPE": 0,
    "CLASSIFICATION_TYPE": "U",
    "NORAD_CAT_ID": 41556,
    "ELEMENT_SET_NO": 999,
    "REV_AT_EPOCH": 49580,
    "BSTAR": 0.00041296,
    "MEAN_MOTION_DOT": 9.188e-05,
    "MEAN_MOTION_DDOT": 0
  },
  {
    "OBJECT_NAME": "CARTOSAT-2C",
    "OBJECT_ID": "2016-040A",
    "EPOCH": "2025-05-04T04:15:13.084128",
    "MEAN_MOTION": 15.193578,
    "ECCENTRICITY": 0.0013562,
    "INCLINATION": 97.4248,
    "RA_OF_ASC_NODE": 184.9596,
    "ARG_OF_PERICENTER": 119.7426,
    "MEAN_ANOMALY": 240.516,
    "EPHEMERIS_TYPE": 0,
    "CLASSIFICATION_TYPE": "U",
    "NORAD_CAT_ID": 41599,
    "ELEMENT_SET_NO": 999,
    "REV_AT_EPOCH": 49161,
    "BSTAR": 0.0003712,
    "MEAN_MOTION_DOT": 7.801e-05,
    "MEAN_MOTION_DDOT": 0
  },
  {
    "OBJECT_NAME": "SKYSAT-C1",
    "OBJECT_ID": "2016-040C",
    "EPOCH": "2025-05-04T02:00:50.499648",
    "MEAN_MOTION": 15.29257058,
    "ECCENTRICITY": 0.0002176,
    "INCLINATION": 97.0092,
    "RA_OF_ASC_NODE": 173.8519,
    "ARG_OF_PERICENTER": 150.8231,
    "MEAN_ANOMALY": 209.3132,
    "EPHEMERIS_TYPE": 0,
    "CLASSIFICATION_TYPE": "U",
    "NORAD_CAT_ID": 41601,
    "ELEMENT_SET_NO": 999,
    "REV_AT_EPOCH": 49522,
    "BSTAR": 0.00024997,
    "MEAN_MOTION_DOT": 7.026e-05,
    "MEAN_MOTION_DDOT": 0
  },
  {
    "OBJECT_NAME": "LAPAN-A3",
    "OBJECT_ID": "2016-040E",
    "EPOCH": "2025-05-04T04:42:31.484736",
    "MEAN_MOTION": 15.29594349,
    "ECCENTRICITY": 0.0012371,
    "INCLINATION": 97.1384,
    "RA_OF_ASC_NODE": 130.2377,
    "ARG_OF_PERICENTER": 47.1884,
    "MEAN_ANOMALY": 313.0395,
    "EPHEMERIS_TYPE": 0,
    "CLASSIFICATION_TYPE": "U",
    "NORAD_CAT_ID": 41603,
    "ELEMENT_SET_NO": 999,
    "REV_AT_EPOCH": 49222,
    "BSTAR": 0.00019791,
    "MEAN_MOTION_DOT": 5.616e-05,
    "MEAN_MOTION_DDOT": 0
  },
  {
    "OBJECT_NAME": "BIROS",
    "OBJECT_ID": "2016-040F",
    "EPOCH": "2025-05-04T01:32:28.951008",
    "MEAN_MOTION": 15.59916838,
    "ECCENTRICITY": 0.0003314,
    "INCLINATION": 97.0901,
    "RA_OF_ASC_NODE": 152.9623,
    "ARG_OF_PERICENTER": 324.7276,
    "MEAN_ANOMALY": 35.3761,
    "EPHEMERIS_TYPE": 0,
    "CLASSIFICATION_TYPE": "U",
    "NORAD_CAT_ID": 41604,
    "ELEMENT_SET_NO": 999,
    "REV_AT_EPOCH": 49380,
    "BSTAR": 0.00046994,
    "MEAN_MOTION_DOT": 0.00037853,
    "MEAN_MOTION_DDOT": 0
  }
]